zip,primary_city,state,county,area_codes
40003,Bagdad,KY,Shelby County,502
40004,Bardstown,KY,Nelson County,502
40006,Bedford,KY,Trimble County,502
40007,Bethlehem,KY,Henry County,502
40008,Bloomfield,KY,Nelson County,859502
40009,Bradfordsville,KY,Marion County,270
40010,Buckner,KY,Oldham County,502
40011,Campbellsburg,KY,Henry County,502
40012,Chaplin,KY,Nelson County,502
40013,Coxs Creek,KY,Nelson County,
40014,Crestwood,KY,Oldham County,502
40018,Eastwood,KY,Jefferson County,502
40019,Eminence,KY,Henry County,502
40020,Fairfield,KY,Nelson County,502
40022,Finchville,KY,Shelby County,502
40023,Fisherville,KY,Jefferson County,502
40025,Glenview,KY,Jefferson County,502
40026,Goshen,KY,Oldham County,502
40027,Harrods Creek,KY,Jefferson County,502
40031,La Grange,KY,Oldham County,502
40032,La Grange,KY,Oldham County,502
40033,Lebanon,KY,Marion County,270
40036,Lockport,KY,Henry County,502
40037,Loretto,KY,Marion County,270
40040,Mackville,KY,Washington County,859
40041,Masonic Home,KY,Jefferson County,502
40045,Milton,KY,Trimble County,502
40046,Mount Eden,KY,Spencer County,502
40047,Mount Washington,KY,Bullitt County,502
40048,Nazareth,KY,Nelson County,502
40049,Nerinx,KY,Marion County,270
40050,New Castle,KY,Henry County,502
40051,New Haven,KY,Nelson County,502
40052,New Hope,KY,Nelson County,
40055,Pendleton,KY,Henry County,
40056,Pewee Valley,KY,Oldham County,502
40057,Pleasureville,KY,Henry County,502
40058,Port Royal,KY,Henry County,502
40059,Prospect,KY,Jefferson County,
40060,Raywick,KY,Marion County,270
40061,Saint Catharine,KY,Washington County,859
40062,Saint Francis,KY,Marion County,270
40063,Saint Mary,KY,Marion County,270
40065,Shelbyville,KY,Shelby County,502
40066,Shelbyville,KY,Shelby County,502
40067,Simpsonville,KY,Shelby County,502
40068,Smithfield,KY,Henry County,502
40069,Springfield,KY,Washington County,859
40070,Sulphur,KY,Henry County,502
40071,Taylorsville,KY,Spencer County,502
40075,Turners Station,KY,Henry County,502
40076,Waddy,KY,Shelby County,502
40077,Westport,KY,Oldham County,502
40078,Willisburg,KY,Washington County,859
40104,Battletown,KY,Meade County,270
40107,Boston,KY,Nelson County,502
40108,Brandenburg,KY,Meade County,270
40109,Brooks,KY,Bullitt County,502
40110,Clermont,KY,Bullitt County,502
40111,Cloverport,KY,Breckinridge County,270
40115,Custer,KY,Breckinridge County,270
40117,Ekron,KY,Meade County,270
40118,Fairdale,KY,Jefferson County,502
40119,Falls Of Rough,KY,Grayson County,270
40121,Fort Knox,KY,Hardin County,502
40122,Fort Knox,KY,Hardin County,
40129,Hillview,KY,Bullitt County,502
40140,Garfield,KY,Breckinridge County,270
40142,Guston,KY,Meade County,270
40143,Hardinsburg,KY,Breckinridge County,270
40144,Harned,KY,Breckinridge County,270
40145,Hudson,KY,Breckinridge County,270
40146,Irvington,KY,Breckinridge County,270
40150,Lebanon Junction,KY,Bullitt County,502
40152,Mc Daniels,KY,Breckinridge County,270
40153,Mc Quady,KY,Breckinridge County,270
40155,Muldraugh,KY,Meade County,502
40157,Payneville,KY,Meade County,270
40159,Radcliff,KY,Hardin County,270
40160,Radcliff,KY,Hardin County,502270
40161,Rhodelia,KY,Meade County,
40162,Rineyville,KY,Hardin County,270
40165,Shepherdsville,KY,Bullitt County,502
40166,Shepherdsville,KY,,
40170,Stephensport,KY,Breckinridge County,270
40171,Union Star,KY,Breckinridge County,270
40175,Vine Grove,KY,Hardin County,502270
40176,Webster,KY,Breckinridge County,270
40177,West Point,KY,Hardin County,502
40178,Westview,KY,Breckinridge County,270
40201,Louisville,KY,Jefferson County,502
40202,Louisville,KY,Jefferson County,502
40203,Louisville,KY,Jefferson County,502
40204,Louisville,KY,Jefferson County,502
40205,Louisville,KY,Jefferson County,502
40206,Louisville,KY,Jefferson County,502
40207,Louisville,KY,Jefferson County,502
40208,Louisville,KY,Jefferson County,502
40209,Louisville,KY,Jefferson County,502
40210,Louisville,KY,Jefferson County,502
40211,Louisville,KY,Jefferson County,502
40212,Louisville,KY,Jefferson County,502
40213,Louisville,KY,Jefferson County,502
40214,Louisville,KY,Jefferson County,502
40215,Louisville,KY,Jefferson County,502
40216,Louisville,KY,Jefferson County,502
40217,Louisville,KY,Jefferson County,502
40218,Louisville,KY,Jefferson County,502
40219,Louisville,KY,Jefferson County,502
40220,Louisville,KY,Jefferson County,502
40221,Louisville,KY,Jefferson County,502
40222,Louisville,KY,Jefferson County,502
40223,Louisville,KY,Jefferson County,502
40224,Louisville,KY,Jefferson County,502
40225,Louisville,KY,Jefferson County,502
40228,Louisville,KY,Jefferson County,502
40229,Louisville,KY,Jefferson County,502
40231,Louisville,KY,Jefferson County,502
40232,Louisville,KY,Jefferson County,502
40233,Louisville,KY,Jefferson County,502
40241,Louisville,KY,Jefferson County,502
40242,Louisville,KY,Jefferson County,502
40243,Louisville,KY,Jefferson County,502
40245,Louisville,KY,Jefferson County,502
40250,Louisville,KY,Jefferson County,502
40251,Louisville,KY,Jefferson County,502
40252,Louisville,KY,Jefferson County,502
40253,Louisville,KY,Jefferson County,502
40255,Louisville,KY,Jefferson County,502
40256,Louisville,KY,Jefferson County,502
40257,Louisville,KY,Jefferson County,502
40258,Louisville,KY,Jefferson County,502
40259,Louisville,KY,Jefferson County,502
40261,Louisville,KY,Jefferson County,502
40266,Louisville,KY,Jefferson County,502
40268,Louisville,KY,Jefferson County,502
40269,Louisville,KY,Jefferson County,502
40270,Louisville,KY,Jefferson County,502
40272,Louisville,KY,Jefferson County,502
40280,Louisville,KY,Jefferson County,502
40281,Louisville,KY,Jefferson County,502
40282,Louisville,KY,Jefferson County,502
40283,Louisville,KY,Jefferson County,502
40285,Louisville,KY,Jefferson County,502
40287,Louisville,KY,Jefferson County,502
40289,Louisville,KY,Jefferson County,502
40290,Louisville,KY,Jefferson County,502
40291,Louisville,KY,Jefferson County,502
40292,Louisville,KY,Jefferson County,502
40293,Louisville,KY,Jefferson County,502
40294,Louisville,KY,Jefferson County,502
40295,Louisville,KY,Jefferson County,502
40296,Louisville,KY,Jefferson County,502
40297,Louisville,KY,Jefferson County,502
40298,Louisville,KY,Jefferson County,502
40299,Louisville,KY,Jefferson County,502
40310,Burgin,KY,Mercer County,859
40311,Carlisle,KY,Nicholas County,859
40312,Clay City,KY,Powell County,606
40313,Clearfield,KY,Rowan County,606
40316,Denniston,KY,Menifee County,606
40317,Elliottville,KY,Rowan County,606
40319,Farmers,KY,Rowan County,606
40322,Frenchburg,KY,Menifee County,606
40324,Georgetown,KY,Scott County,502
40328,Gravel Switch,KY,Marion County,
40330,Harrodsburg,KY,Mercer County,859
40334,Hope,KY,Montgomery County,606
40336,Irvine,KY,Estill County,606
40337,Jeffersonville,KY,Montgomery County,859
40339,Keene,KY,Jessamine County,859
40340,Nicholasville,KY,Jessamine County,859
40342,Lawrenceburg,KY,Anderson County,502
40346,Means,KY,Menifee County,606
40347,Midway,KY,Woodford County,502859
40348,Millersburg,KY,Bourbon County,859
40350,Moorefield,KY,Nicholas County,859606
40351,Morehead,KY,Rowan County,606
40353,Mount Sterling,KY,Montgomery County,606859
40355,New Liberty,KY,Owen County,502
40356,Nicholasville,KY,Jessamine County,859
40357,North Middletown,KY,Bourbon County,859
40358,Olympia,KY,Bath County,
40359,Owenton,KY,Owen County,502
40360,Owingsville,KY,Bath County,606
40361,Paris,KY,Bourbon County,859
40362,Paris,KY,Bourbon County,859
40363,Perry Park,KY,Owen County,
40366,Preston,KY,Bath County,
40370,Sadieville,KY,Scott County,502
40371,Salt Lick,KY,Bath County,606859
40372,Salvisa,KY,Mercer County,859
40374,Sharpsburg,KY,Bath County,606859
40376,Slade,KY,Powell County,606
40379,Stamping Ground,KY,Scott County,502
40380,Stanton,KY,Powell County,606
40383,Versailles,KY,Woodford County,859
40384,Versailles,KY,Woodford County,859
40385,Waco,KY,Madison County,606859
40386,Versailles,KY,Woodford County,859
40387,Wellington,KY,Menifee County,606
40390,Wilmore,KY,Jessamine County,859
40391,Winchester,KY,Clark County,859
40392,Winchester,KY,Clark County,859
40402,Annville,KY,Jackson County,606
40403,Berea,KY,Madison County,859
40404,Berea,KY,Madison County,859
40405,Bighill,KY,Jackson County,859
40409,Brodhead,KY,Rockcastle County,606
40410,Bryantsville,KY,Garrard County,859
40419,Crab Orchard,KY,Lincoln County,606
40422,Danville,KY,Boyle County,606859
40423,Danville,KY,Boyle County,859
40434,Gray Hawk,KY,Jackson County,606
40437,Hustonville,KY,Lincoln County,606
40440,Junction City,KY,Boyle County,859
40442,Kings Mountain,KY,Lincoln County,
40444,Lancaster,KY,Garrard County,859
40445,Livingston,KY,Rockcastle County,606
40446,Lancaster,KY,Garrard County,859
40447,Mc Kee,KY,Jackson County,606
40448,Mc Kinney,KY,Lincoln County,606
40452,Mitchellsburg,KY,Boyle County,859
40456,Mount Vernon,KY,Rockcastle County,606
40460,Orlando,KY,Rockcastle County,606
40461,Paint Lick,KY,Madison County,606859
40464,Parksville,KY,Boyle County,859
40468,Perryville,KY,Boyle County,859
40472,Ravenna,KY,Estill County,606
40473,Renfro Valley,KY,Rockcastle County,606
40475,Richmond,KY,Madison County,859
40476,Richmond,KY,Madison County,859
40481,Sandgap,KY,Jackson County,606
40484,Stanford,KY,Lincoln County,606
40486,Tyner,KY,Jackson County,606
40488,Waneta,KY,Jackson County,606
40489,Waynesburg,KY,Lincoln County,
40492,Wildie,KY,Rockcastle County,606
40495,Winston,KY,Estill County,606
40502,Lexington,KY,Fayette County,859
40503,Lexington,KY,Fayette County,859
40504,Lexington,KY,Fayette County,859
40505,Lexington,KY,Fayette County,859
40506,Lexington,KY,Fayette County,859
40507,Lexington,KY,Fayette County,859
40508,Lexington,KY,Fayette County,859
40509,Lexington,KY,Fayette County,859
40510,Lexington,KY,Fayette County,859
40511,Lexington,KY,Fayette County,502
40512,Lexington,KY,Fayette County,859
40513,Lexington,KY,Fayette County,859
40514,Lexington,KY,Fayette County,859
40515,Lexington,KY,Fayette County,859
40516,Lexington,KY,Fayette County,859
40517,Lexington,KY,Fayette County,859
40522,Lexington,KY,Fayette County,859
40523,Lexington,KY,Fayette County,859
40524,Lexington,KY,Fayette County,859
40526,Lexington,KY,Fayette County,859
40533,Lexington,KY,Fayette County,859
40536,Lexington,KY,Fayette County,859
40544,Lexington,KY,Fayette County,859
40546,Lexington,KY,Fayette County,859
40550,Lexington,KY,Fayette County,859
40555,Lexington,KY,Fayette County,859
40574,Lexington,KY,Fayette County,859
40575,Lexington,KY,Fayette County,859
40576,Lexington,KY,Fayette County,859
40577,Lexington,KY,Fayette County,859
40578,Lexington,KY,Fayette County,859
40579,Lexington,KY,Fayette County,859
40580,Lexington,KY,Fayette County,859
40581,Lexington,KY,Fayette County,859
40582,Lexington,KY,Fayette County,859
40583,Lexington,KY,Fayette County,859
40588,Lexington,KY,Fayette County,859
40591,Lexington,KY,Fayette County,859
40598,Lexington,KY,Fayette County,859
40601,Frankfort,KY,Franklin County,502
40602,Frankfort,KY,Franklin County,502
40603,Frankfort,KY,Franklin County,502
40604,Frankfort,KY,Franklin County,502
40618,Frankfort,KY,Franklin County,502
40619,Frankfort,KY,Franklin County,502
40620,Frankfort,KY,Franklin County,502
40621,Frankfort,KY,Franklin County,502
40622,Frankfort,KY,Franklin County,502
40701,Corbin,KY,Whitley County,606
40702,Corbin,KY,Whitley County,606
40724,Bush,KY,Laurel County,606
40729,East Bernstadt,KY,Laurel County,606
40730,Emlyn,KY,Whitley County,606
40734,Gray,KY,Knox County,606
40737,Keavy,KY,Laurel County,606
40740,Lily,KY,Laurel County,606
40741,London,KY,Laurel County,606
40742,London,KY,Laurel County,606
40743,London,KY,Laurel County,606
40744,London,KY,Laurel County,606
40745,London,KY,Laurel County,606
40750,London,KY,,
40754,Nevisdale,KY,Whitley County,606
40755,Pittsburg,KY,Laurel County,606
40759,Rockholds,KY,Whitley County,606
40763,Siler,KY,Whitley County,606
40769,Williamsburg,KY,Whitley County,606
40771,Woodbine,KY,Knox County,606
40801,Ages Brookside,KY,Harlan County,606
40803,Asher,KY,Leslie County,606
40806,Baxter,KY,Harlan County,606
40807,Benham,KY,Harlan County,606
40808,Big Laurel,KY,Harlan County,606
40810,Bledsoe,KY,Harlan County,606
40813,Calvin,KY,Bell County,606
40815,Cawood,KY,Harlan County,606
40816,Chappell,KY,Leslie County,606
40818,Coalgood,KY,Harlan County,606
40819,Coldiron,KY,Harlan County,606
40820,Cranks,KY,Harlan County,606
40823,Cumberland,KY,Harlan County,606
40824,Dayhoit,KY,Harlan County,606
40826,Eolia,KY,Letcher County,606
40827,Essie,KY,Leslie County,606
40828,Evarts,KY,Harlan County,606
40829,Grays Knob,KY,Harlan County,606
40830,Gulston,KY,Harlan County,606
40831,Harlan,KY,Harlan County,606
40840,Helton,KY,Leslie County,606
40843,Holmes Mill,KY,Harlan County,606
40844,Hoskinston,KY,Leslie County,606
40845,Hulen,KY,Bell County,606
40847,Kenvir,KY,Harlan County,606
40849,Lejunior,KY,Harlan County,606
40854,Loyall,KY,Harlan County,606
40855,Lynch,KY,Harlan County,606
40856,Miracle,KY,Bell County,606
40858,Mozelle,KY,Leslie County,606
40862,Partridge,KY,Letcher County,606
40863,Pathfork,KY,Harlan County,606
40865,Putney,KY,Harlan County,606
40868,Stinnett,KY,Leslie County,606
40870,Totz,KY,Harlan County,606
40873,Wallins Creek,KY,Harlan County,606
40874,Warbranch,KY,Leslie County,606
40902,Arjay,KY,Bell County,606
40903,Artemus,KY,Knox County,606
40906,Barbourville,KY,Knox County,606
40913,Beverly,KY,Clay County,606
40914,Big Creek,KY,Clay County,606
40915,Bimble,KY,Knox County,606
40921,Bryants Store,KY,Knox County,606
40923,Cannon,KY,Knox County,606
40927,Closplint,KY,Harlan County,606
40930,Dewitt,KY,Knox County,606
40931,Eriline,KY,Clay County,606
40932,Fall Rock,KY,Clay County,606
40935,Flat Lick,KY,Knox County,606
40939,Fourmile,KY,Bell County,
40940,Frakes,KY,Whitley County,606
40941,Garrard,KY,Clay County,606
40943,Girdler,KY,Knox County,606
40944,Goose Rock,KY,Clay County,606
40946,Green Road,KY,Knox County,606
40949,Heidrick,KY,Knox County,606
40951,Hima,KY,Clay County,606
40953,Hinkle,KY,Knox County,606
40955,Ingram,KY,Bell County,606
40958,Kettle Island,KY,Bell County,606
40962,Manchester,KY,Clay County,606
40964,Mary Alice,KY,Harlan County,606
40965,Middlesboro,KY,Bell County,606
40972,Oneida,KY,Clay County,606
40977,Pineville,KY,Bell County,606
40979,Roark,KY,Leslie County,606
40981,Saul,KY,Perry County,606
40982,Scalf,KY,Knox County,606
40983,Sextons Creek,KY,Clay County,606
40988,Stoney Fork,KY,Bell County,606
40995,Trosper,KY,Knox County,606
40997,Walker,KY,Knox County,606
40999,Woollum,KY,Knox County,606
41001,Alexandria,KY,Campbell County,859
41002,Augusta,KY,Bracken County,606
41003,Berry,KY,Harrison County,606
41004,Brooksville,KY,Bracken County,606
41005,Burlington,KY,Boone County,859
41006,Butler,KY,Pendleton County,859
41007,California,KY,Campbell County,606
41008,Carrollton,KY,Carroll County,502
41010,Corinth,KY,Grant County,
41011,Covington,KY,Kenton County,859
41012,Covington,KY,Kenton County,859
41014,Covington,KY,Kenton County,859
41015,Latonia,KY,Kenton County,859
41016,Covington,KY,Kenton County,859
41017,Ft Mitchell,KY,Kenton County,859
41018,Erlanger,KY,Kenton County,859
41019,Covington,KY,Kenton County,859
41021,Hebron,KY,,
41022,Florence,KY,Boone County,859
41025,Erlanger,KY,,
41030,Crittenden,KY,Grant County,859
41031,Cynthiana,KY,Harrison County,859
41033,De Mossville,KY,Pendleton County,859
41034,Dover,KY,Mason County,606
41035,Dry Ridge,KY,Grant County,
41037,Elizaville,KY,Fleming County,606
41039,Ewing,KY,Fleming County,606
41040,Falmouth,KY,Pendleton County,859
41041,Flemingsburg,KY,Fleming County,606
41042,Florence,KY,Boone County,859
41043,Foster,KY,Bracken County,606
41044,Germantown,KY,Bracken County,606
41045,Ghent,KY,Carroll County,502
41046,Glencoe,KY,Gallatin County,859
41048,Hebron,KY,Boone County,859
41049,Hillsboro,KY,Fleming County,606
41051,Independence,KY,Kenton County,859
41052,Jonesville,KY,Grant County,859
41053,Kenton,KY,Kenton County,859
41054,Mason,KY,Grant County,859
41055,Mayslick,KY,Mason County,606
41056,Maysville,KY,Mason County,606
41059,Melbourne,KY,Campbell County,859
41061,Milford,KY,Bracken County,606
41062,Minerva,KY,Mason County,606
41063,Morning View,KY,Kenton County,859
41064,Mount Olivet,KY,Robertson County,606
41065,Muses Mills,KY,Fleming County,606
41071,Newport,KY,Campbell County,859
41072,Newport,KY,Campbell County,859
41073,Bellevue,KY,Campbell County,859
41074,Dayton,KY,Campbell County,859
41075,Fort Thomas,KY,Campbell County,859
41076,Newport,KY,Campbell County,859
41080,Petersburg,KY,Boone County,859
41081,Plummers Landing,KY,Fleming County,606
41083,Sanders,KY,Carroll County,502859
41085,Silver Grove,KY,Campbell County,859
41086,Sparta,KY,Gallatin County,502859
41091,Union,KY,Boone County,859
41092,Verona,KY,Boone County,
41093,Wallingford,KY,Fleming County,606
41094,Walton,KY,Boone County,859
41095,Warsaw,KY,Gallatin County,859
41096,Washington,KY,Mason County,606
41097,Williamstown,KY,Grant County,859
41098,Worthville,KY,Owen County,502
41099,Newport,KY,Campbell County,859
41101,Ashland,KY,Boyd County,606
41102,Ashland,KY,Boyd County,606
41105,Ashland,KY,Boyd County,606
41114,Ashland,KY,Boyd County,606
41121,Argillite,KY,Greenup County,606
41124,Blaine,KY,Lawrence County,606
41128,Carter,KY,Carter County,606
41129,Catlettsburg,KY,Boyd County,606
41132,Denton,KY,Carter County,
41135,Emerson,KY,Lewis County,606
41139,Flatwoods,KY,Greenup County,606
41141,Garrison,KY,Lewis County,606
41142,Grahn,KY,Carter County,606
41143,Grayson,KY,Carter County,606
41144,Greenup,KY,Greenup County,606
41146,Hitchins,KY,Carter County,606
41149,Isonville,KY,Elliott County,606
41159,Martha,KY,Lawrence County,606
41160,Mazie,KY,Lawrence County,606
41164,Olive Hill,KY,Carter County,606
41166,Quincy,KY,Lewis County,606
41168,Rush,KY,Boyd County,606
41169,Russell,KY,Greenup County,606
41171,Sandy Hook,KY,Elliott County,606
41173,Soldier,KY,Carter County,606
41174,South Portsmouth,KY,Greenup County,606
41175,South Shore,KY,Greenup County,606
41179,Vanceburg,KY,Lewis County,606
41180,Webbville,KY,Lawrence County,606
41181,Willard,KY,Carter County,606
41183,Worthington,KY,Greenup County,606
41189,Tollesboro,KY,Lewis County,606
41201,Adams,KY,Lawrence County,606
41203,Beauty,KY,Martin County,606
41204,Boons Camp,KY,Johnson County,606
41214,Debord,KY,Martin County,606
41216,East Point,KY,Floyd County,606
41219,Flatgap,KY,Johnson County,606
41222,Hagerhill,KY,Johnson County,606
41224,Inez,KY,Martin County,606
41226,Keaton,KY,Johnson County,606
41230,Louisa,KY,Lawrence County,606
41231,Lovely,KY,Martin County,606
41232,Lowmansville,KY,Lawrence County,606
41234,Meally,KY,Johnson County,606
41238,Oil Springs,KY,Johnson County,606
41240,Paintsville,KY,Johnson County,606
41250,Pilgrim,KY,Martin County,606
41254,River,KY,Johnson County,
41255,Sitka,KY,Johnson County,606
41256,Staffordsville,KY,Johnson County,606
41257,Stambaugh,KY,Johnson County,606
41260,Thelma,KY,Johnson County,606
41262,Tomahawk,KY,Martin County,606
41263,Tutor Key,KY,Johnson County,606
41264,Ulysses,KY,Lawrence County,606
41265,Van Lear,KY,Johnson County,606
41267,Warfield,KY,Martin County,606
41268,West Van Lear,KY,Johnson County,606
41271,Williamsport,KY,Johnson County,606
41274,Wittensville,KY,Johnson County,606
41301,Campton,KY,Wolfe County,606
41307,Athol,KY,Lee County,606
41310,Bays,KY,Breathitt County,606
41311,Beattyville,KY,Lee County,606
41313,Bethany,KY,Wolfe County,606
41314,Booneville,KY,Owsley County,606
41317,Clayhole,KY,Breathitt County,606
41332,Hazel Green,KY,Wolfe County,606
41333,Heidelberg,KY,Lee County,606
41338,Island City,KY,Owsley County,606
41339,Jackson,KY,Breathitt County,606
41347,Lone,KY,Lee County,606
41348,Lost Creek,KY,Breathitt County,606
41351,Mistletoe,KY,Owsley County,606
41352,Mize,KY,Morgan County,606
41360,Pine Ridge,KY,Wolfe County,606
41362,Primrose,KY,Lee County,606
41364,Ricetown,KY,Owsley County,606
41365,Rogers,KY,Wolfe County,
41366,Rousseau,KY,Breathitt County,606
41367,Rowdy,KY,Perry County,606
41368,Saint Helens,KY,Lee County,606
41385,Vancleve,KY,Breathitt County,606
41386,Vincent,KY,Owsley County,
41390,Whick,KY,Breathitt County,606
41397,Zoe,KY,Lee County,606
41408,Cannel City,KY,Morgan County,606
41413,Crockett,KY,Morgan County,606
41421,Elkfork,KY,Morgan County,606
41425,Ezel,KY,Morgan County,606
41426,Falcon,KY,Magoffin County,606
41433,Gapville,KY,Magoffin County,606
41451,Malone,KY,Morgan County,606
41459,Ophir,KY,Morgan County,606
41464,Royalton,KY,Magoffin County,606
41465,Salyersville,KY,Magoffin County,606
41472,West Liberty,KY,Morgan County,606
41477,Wrigley,KY,Morgan County,606
41501,Pikeville,KY,Pike County,606
41502,Pikeville,KY,Pike County,606
41503,South Williamson,KY,Pike County,606
41512,Ashcamp,KY,Pike County,606
41513,Belcher,KY,Pike County,606
41514,Belfry,KY,Pike County,606
41517,Burdine,KY,Letcher County,606
41519,Canada,KY,Pike County,606
41520,Dorton,KY,Pike County,606
41522,Elkhorn City,KY,Pike County,606
41524,Fedscreek,KY,Pike County,606
41526,Fords Branch,KY,Pike County,606
41527,Forest Hills,KY,Pike County,606
41528,Freeburn,KY,Pike County,606
41531,Hardy,KY,Pike County,606
41534,Hellier,KY,Pike County,606
41535,Huddy,KY,Pike County,606
41537,Jenkins,KY,Letcher County,606
41538,Jonancy,KY,Pike County,606
41539,Kimper,KY,Pike County,606
41540,Lick Creek,KY,Pike County,606
41542,Lookout,KY,Pike County,606
41543,Mc Andrews,KY,Pike County,606
41544,Mc Carr,KY,Pike County,606
41547,Majestic,KY,Pike County,606
41548,Mouthcard,KY,Pike County,606
41549,Myra,KY,Pike County,606
41553,Phelps,KY,Pike County,606
41554,Phyllis,KY,Pike County,606
41555,Pinsonfork,KY,Pike County,606
41557,Raccoon,KY,Pike County,606
41558,Ransom,KY,Pike County,606
41559,Regina,KY,Pike County,606
41560,Robinson Creek,KY,Pike County,606
41561,Rockhouse,KY,Pike County,606
41562,Shelbiana,KY,Pike County,606
41563,Shelby Gap,KY,Pike County,606
41564,Sidney,KY,Pike County,606
41566,Steele,KY,Pike County,606
41567,Stone,KY,Pike County,606
41568,Stopover,KY,Pike County,606
41571,Varney,KY,Pike County,606
41572,Virgie,KY,Pike County,606
41601,Allen,KY,Floyd County,606
41602,Auxier,KY,Floyd County,606
41603,Banner,KY,Floyd County,606
41604,Beaver,KY,Floyd County,606
41605,Betsy Layne,KY,Floyd County,606
41606,Bevinsville,KY,Floyd County,606
41607,Blue River,KY,Floyd County,606
41612,Bypro,KY,Floyd County,606
41615,Dana,KY,Floyd County,606
41616,David,KY,Floyd County,606
41619,Drift,KY,Floyd County,606
41621,Dwale,KY,Floyd County,606
41622,Eastern,KY,Floyd County,606
41630,Garrett,KY,Floyd County,606
41631,Grethel,KY,Floyd County,606
41632,Gunlock,KY,Magoffin County,606
41635,Harold,KY,Floyd County,606
41636,Hi Hat,KY,Floyd County,606
41640,Hueysville,KY,Floyd County,606
41642,Ivel,KY,Floyd County,606
41643,Lackey,KY,Knott County,606
41645,Langley,KY,Floyd County,606
41647,Mc Dowell,KY,Floyd County,606
41649,Martin,KY,Floyd County,606
41650,Melvin,KY,Floyd County,606
41651,Minnie,KY,Floyd County,606
41653,Prestonsburg,KY,Floyd County,606
41655,Printer,KY,Floyd County,606
41659,Stanville,KY,Floyd County,606
41660,Teaberry,KY,Floyd County,606
41663,Tram,KY,Floyd County,606
41666,Wayland,KY,Floyd County,606
41667,Weeksbury,KY,Floyd County,606
41669,Wheelwright,KY,Floyd County,606
41701,Hazard,KY,Perry County,606
41702,Hazard,KY,Perry County,606
41712,Ary,KY,Perry County,606
41713,Avawam,KY,Perry County,606
41714,Bear Branch,KY,Leslie County,606
41719,Bonnyman,KY,Perry County,606
41721,Buckhorn,KY,Perry County,606
41722,Bulan,KY,Perry County,606
41723,Busy,KY,Perry County,606
41725,Carrie,KY,Knott County,606
41727,Chavies,KY,Perry County,606
41729,Combs,KY,Perry County,606
41731,Cornettsville,KY,Perry County,
41735,Delphia,KY,Perry County,606
41736,Dice,KY,Perry County,606
41739,Dwarf,KY,Perry County,606
41740,Emmalena,KY,Knott County,606
41743,Fisty,KY,Knott County,606
41745,Gays Creek,KY,Perry County,
41746,Happy,KY,Perry County,606
41747,Hardburly,KY,Perry County,606
41749,Hyden,KY,Leslie County,606
41751,Jeff,KY,Perry County,606
41754,Krypton,KY,Perry County,606
41759,Sassafras,KY,Knott County,606
41760,Scuddy,KY,Perry County,606
41762,Sizerock,KY,Leslie County,606
41763,Slemp,KY,Perry County,606
41764,Smilax,KY,Leslie County,606
41766,Thousandsticks,KY,Leslie County,606
41772,Vest,KY,Knott County,606
41773,Vicco,KY,Perry County,606
41774,Viper,KY,Perry County,606
41775,Wendover,KY,Leslie County,606
41776,Wooton,KY,Leslie County,606
41777,Yeaddiss,KY,Leslie County,606
41778,Yerkes,KY,Perry County,606
41804,Blackey,KY,Letcher County,606
41810,Cromona,KY,Letcher County,606
41812,Deane,KY,Letcher County,606
41815,Ermine,KY,Letcher County,606
41817,Garner,KY,Knott County,606
41819,Gordon,KY,Letcher County,606
41821,Hallie,KY,Letcher County,606
41822,Hindman,KY,Knott County,606
41824,Isom,KY,Letcher County,606
41825,Jackhorn,KY,Letcher County,606
41826,Jeremiah,KY,Letcher County,606
41828,Kite,KY,Knott County,606
41831,Leburn,KY,Knott County,606
41832,Letcher,KY,Letcher County,606
41833,Linefork,KY,Letcher County,606
41834,Littcarr,KY,Knott County,606
41835,Mc Roberts,KY,Letcher County,606
41836,Mallie,KY,Knott County,606
41837,Mayking,KY,Letcher County,606
41838,Millstone,KY,Letcher County,606
41839,Mousie,KY,Knott County,606
41840,Neon,KY,Letcher County,606
41843,Pine Top,KY,Knott County,606
41844,Pippa Passes,KY,Knott County,606
41845,Premium,KY,Letcher County,606
41847,Redfox,KY,Knott County,606
41848,Roxana,KY,Letcher County,606
41849,Seco,KY,Letcher County,606
41855,Thornton,KY,Letcher County,606
41858,Whitesburg,KY,Letcher County,606
41859,Dema,KY,Knott County,606
41861,Raven,KY,Knott County,606
41862,Topmost,KY,Knott County,606
42001,Paducah,KY,McCracken County,270
42002,Paducah,KY,Mccracken County,270
42003,Paducah,KY,McCracken County,270
42020,Almo,KY,Calloway County,270
42021,Arlington,KY,Carlisle County,270
42022,Bandana,KY,Ballard County,270
42023,Bardwell,KY,Carlisle County,270
42024,Barlow,KY,Ballard County,270
42025,Benton,KY,Marshall County,270
42027,Boaz,KY,Graves County,270
42028,Burna,KY,Livingston County,270
42029,Calvert City,KY,Marshall County,270
42031,Clinton,KY,Hickman County,270
42032,Columbus,KY,Hickman County,270
42033,Crayne,KY,Crittenden County,270
42035,Cunningham,KY,Carlisle County,
42036,Dexter,KY,Calloway County,270
42037,Dycusburg,KY,Crittenden County,270
42038,Eddyville,KY,Lyon County,270
42039,Fancy Farm,KY,Graves County,
42040,Farmington,KY,Graves County,270
42041,Fulton,KY,Fulton County,270
42044,Gilbertsville,KY,Marshall County,270
42045,Grand Rivers,KY,Livingston County,270
42047,Hampton,KY,Livingston County,270
42048,Hardin,KY,Marshall County,270
42049,Hazel,KY,Calloway County,270
42050,Hickman,KY,Fulton County,270
42051,Hickory,KY,Graves County,270
42053,Kevil,KY,McCracken County,270
42054,Kirksey,KY,Calloway County,270
42055,Kuttawa,KY,Lyon County,270
42056,La Center,KY,Ballard County,270
42058,Ledbetter,KY,Livingston County,270
42060,Lovelaceville,KY,Ballard County,270
42061,Lowes,KY,Graves County,270
42063,Lynnville,KY,Graves County,270
42064,Marion,KY,Crittenden County,270
42066,Mayfield,KY,Graves County,270
42069,Melber,KY,Graves County,270
42070,Milburn,KY,Carlisle County,270
42071,Murray,KY,Calloway County,270
42076,New Concord,KY,Calloway County,270
42078,Salem,KY,Livingston County,270
42079,Sedalia,KY,Graves County,270
42081,Smithland,KY,Livingston County,270
42082,Symsonia,KY,Graves County,270
42083,Tiline,KY,Livingston County,270
42084,Tolu,KY,Crittenden County,270
42085,Water Valley,KY,Graves County,270
42086,West Paducah,KY,McCracken County,270
42087,Wickliffe,KY,Ballard County,270
42088,Wingo,KY,Graves County,270
42101,Bowling Green,KY,Warren County,270
42102,Bowling Green,KY,Warren County,270
42103,Bowling Green,KY,Warren County,270
42104,Bowling Green,KY,Warren County,270
42120,Adolphus,KY,Allen County,270
42122,Alvaton,KY,Warren County,270
42123,Austin,KY,Barren County,270
42124,Beaumont,KY,Metcalfe County,270
42127,Cave City,KY,Barren County,270
42128,Drake,KY,Warren County,270
42129,Edmonton,KY,Metcalfe County,270
42130,Eighty Eight,KY,Barren County,270
42131,Etoile,KY,Barren County,270
42133,Fountain Run,KY,Monroe County,270
42134,Franklin,KY,Simpson County,270
42135,Franklin,KY,Simpson County,270
42140,Gamaliel,KY,Monroe County,270
42141,Glasgow,KY,Barren County,270
42142,Glasgow,KY,Barren County,270
42151,Hestand,KY,Monroe County,270
42152,Hiseville,KY,Barren County,270
42153,Holland,KY,Allen County,270
42154,Knob Lick,KY,Metcalfe County,270
42156,Lucas,KY,Barren County,270
42157,Mount Hermon,KY,Monroe County,270
42159,Oakland,KY,Warren County,270
42160,Park City,KY,Barren County,270
42163,Rocky Hill,KY,Edmonson County,270
42164,Scottsville,KY,Allen County,270
42166,Summer Shade,KY,Metcalfe County,270
42167,Tompkinsville,KY,Monroe County,270
42170,Woodburn,KY,Warren County,270
42171,Smiths Grove,KY,Warren County,270
42201,Aberdeen,KY,Butler County,270
42202,Adairville,KY,Logan County,270
42204,Allensville,KY,Todd County,270
42206,Auburn,KY,Logan County,270
42207,Bee Spring,KY,Edmonson County,270
42210,Brownsville,KY,Edmonson County,270
42211,Cadiz,KY,Trigg County,270
42214,Center,KY,Metcalfe County,270
42215,Cerulean,KY,Christian County,
42216,Clifty,KY,Todd County,270
42217,Crofton,KY,Christian County,270
42219,Dunbar,KY,Butler County,270
42220,Elkton,KY,Todd County,270
42221,Fairview,KY,Todd County,270
42223,Fort Campbell,KY,Christian County,931
42232,Gracey,KY,Christian County,270
42234,Guthrie,KY,Todd County,270
42236,Herndon,KY,Christian County,
42240,Hopkinsville,KY,Christian County,270
42241,Hopkinsville,KY,Christian County,270
42252,Jetson,KY,Butler County,270
42254,La Fayette,KY,Christian County,270
42256,Lewisburg,KY,Logan County,270
42259,Mammoth Cave,KY,Edmonson County,270
42261,Morgantown,KY,Butler County,270
42262,Oak Grove,KY,Christian County,270
42265,Olmstead,KY,Logan County,
42266,Pembroke,KY,Christian County,270
42273,Rochester,KY,Butler County,270
42274,Rockfield,KY,Warren County,270
42275,Roundhill,KY,Butler County,270
42276,Russellville,KY,Logan County,270
42280,Sharon Grove,KY,Todd County,270
42283,South Union,KY,Logan County,270
42285,Sweeden,KY,Edmonson County,270
42286,Trenton,KY,Todd County,270
42287,Welchs Creek,KY,Butler County,270
42288,Woodbury,KY,Butler County,270
42301,Owensboro,KY,Daviess County,270
42302,Owensboro,KY,Daviess County,270
42303,Owensboro,KY,Daviess County,270
42304,Owensboro,KY,Daviess County,270
42320,Beaver Dam,KY,Ohio County,270
42321,Beech Creek,KY,Muhlenberg County,270
42322,Beech Grove,KY,McLean County,270
42323,Beechmont,KY,Muhlenberg County,270
42324,Belton,KY,Muhlenberg County,270
42325,Bremen,KY,Muhlenberg County,270
42326,Browder,KY,Muhlenberg County,270
42327,Calhoun,KY,McLean County,270
42328,Centertown,KY,Ohio County,270
42330,Central City,KY,Muhlenberg County,270
42332,Cleaton,KY,Muhlenberg County,270
42333,Cromwell,KY,Ohio County,270
42334,Curdsville,KY,Henderson County,270
42337,Drakesboro,KY,Muhlenberg County,270
42338,Dundee,KY,Ohio County,270
42339,Dunmor,KY,Muhlenberg County,270
42343,Fordsville,KY,Ohio County,270
42344,Graham,KY,Muhlenberg County,270
42345,Greenville,KY,Muhlenberg County,270
42347,Hartford,KY,Ohio County,270
42348,Hawesville,KY,Hancock County,270
42349,Horse Branch,KY,Ohio County,270
42350,Island,KY,McLean County,270
42351,Lewisport,KY,Hancock County,270
42352,Livermore,KY,McLean County,270
42354,Mc Henry,KY,Ohio County,270
42355,Maceo,KY,Daviess County,270
42356,Maple Mount,KY,Daviess County,270
42361,Olaton,KY,Ohio County,270
42364,Pellville,KY,Hancock County,270
42366,Philpot,KY,Daviess County,270
42367,Powderly,KY,Muhlenberg County,270
42368,Reynolds Station,KY,Ohio County,270
42369,Rockport,KY,Ohio County,270
42370,Rosine,KY,Ohio County,270
42371,Rumsey,KY,McLean County,270
42372,Sacramento,KY,McLean County,270
42374,South Carrollton,KY,Muhlenberg County,270
42375,Stanley,KY,Daviess County,270
42376,Utica,KY,Daviess County,270
42377,West Louisville,KY,Daviess County,270
42378,Whitesville,KY,Daviess County,270
42402,Baskett,KY,Henderson County,270
42403,Blackford,KY,Webster County,270
42404,Clay,KY,Webster County,270
42406,Corydon,KY,Henderson County,270
42408,Dawson Springs,KY,Hopkins County,270
42409,Dixon,KY,Webster County,270
42410,Earlington,KY,Hopkins County,270
42411,Fredonia,KY,Caldwell County,270
42413,Hanson,KY,Hopkins County,270
42419,Henderson,KY,Henderson County,270
42420,Henderson,KY,Henderson County,270
42431,Madisonville,KY,Hopkins County,270
42436,Manitou,KY,Hopkins County,270
42437,Morganfield,KY,Union County,270
42440,Mortons Gap,KY,Hopkins County,270
42441,Nebo,KY,Hopkins County,270
42442,Nortonville,KY,Hopkins County,270
42444,Poole,KY,Webster County,270
42445,Princeton,KY,Caldwell County,270
42450,Providence,KY,Webster County,270
42451,Reed,KY,Henderson County,270
42452,Robards,KY,Henderson County,270
42453,Saint Charles,KY,Hopkins County,270
42455,Sebree,KY,Webster County,270
42456,Slaughters,KY,Webster County,270
42457,Smith Mills,KY,Henderson County,270
42458,Spottsville,KY,Henderson County,270
42459,Sturgis,KY,Union County,270
42460,Sullivan,KY,Union County,270
42461,Uniontown,KY,Union County,270
42462,Waverly,KY,Union County,270
42463,Wheatcroft,KY,Webster County,270
42464,White Plains,KY,Hopkins County,270
42501,Somerset,KY,Pulaski County,606
42502,Somerset,KY,Pulaski County,606
42503,Somerset,KY,Pulaski County,606
42516,Bethelridge,KY,Casey County,606
42518,Bronston,KY,Pulaski County,
42519,Burnside,KY,Pulaski County,606
42528,Dunnville,KY,Casey County,606
42533,Ferguson,KY,Pulaski County,606
42539,Liberty,KY,Casey County,606
42541,Middleburg,KY,Casey County,
42544,Nancy,KY,Pulaski County,606
42553,Science Hill,KY,Pulaski County,606
42558,Tateville,KY,Pulaski County,606
42564,West Somerset,KY,Pulaski County,606
42565,Windsor,KY,Casey County,
42566,Yosemite,KY,Casey County,606
42567,Eubank,KY,Pulaski County,606
42602,Albany,KY,Clinton County,606
42603,Alpha,KY,Clinton County,
42629,Jamestown,KY,Russell County,270
42631,Marshes Siding,KY,McCreary County,606
42633,Monticello,KY,Wayne County,606
42634,Parkers Lake,KY,McCreary County,606
42635,Pine Knot,KY,McCreary County,606
42638,Revelo,KY,McCreary County,606
42642,Russell Springs,KY,Russell County,270
42647,Stearns,KY,McCreary County,606
42649,Strunk,KY,McCreary County,606
42653,Whitley City,KY,McCreary County,606
42701,Elizabethtown,KY,Hardin County,270
42702,Elizabethtown,KY,Hardin County,270
42712,Big Clifty,KY,Grayson County,270
42713,Bonnieville,KY,Hart County,270
42715,Breeding,KY,Adair County,270
42716,Buffalo,KY,Larue County,270
42717,Burkesville,KY,Cumberland County,270
42718,Campbellsville,KY,Taylor County,270
42719,Campbellsville,KY,Taylor County,270
42720,Cane Valley,KY,Adair County,270
42721,Caneyville,KY,Grayson County,270
42722,Canmer,KY,Hart County,270
42724,Cecilia,KY,Hardin County,270
42726,Clarkson,KY,Grayson County,270
42728,Columbia,KY,Adair County,270
42729,Cub Run,KY,Hart County,270
42731,Dubre,KY,Cumberland County,
42732,Eastview,KY,Hardin County,
42733,Elk Horn,KY,Taylor County,270
42740,Glendale,KY,Hardin County,270
42741,Glens Fork,KY,Adair County,270
42742,Gradyville,KY,Adair County,270
42743,Greensburg,KY,Green County,270
42746,Hardyville,KY,Hart County,270
42748,Hodgenville,KY,Larue County,270
42749,Horse Cave,KY,Hart County,270
42753,Knifley,KY,Adair County,270
42754,Leitchfield,KY,Grayson County,270
42755,Leitchfield,KY,Grayson County,270
42757,Magnolia,KY,Hart County,270
42758,Mannsville,KY,Taylor County,270
42759,Marrowbone,KY,Cumberland County,270
42762,Millwood,KY,Grayson County,270
42764,Mount Sherman,KY,Green County,
42765,Munfordville,KY,Hart County,270
42776,Sonora,KY,Hardin County,270
42782,Summersville,KY,Green County,270
42784,Upton,KY,Hardin County,270
42788,White Mills,KY,Hardin County,
